{"type": "FeatureCollection", "features": [ {"type": "Feature", "properties": {"norad_id": 35885, "name": "COSMOS 2251 DEB", "group": "cosmos-2251-debris", "lat": -4.682446199303921, "lon": -64.8028443054692, "alt_km": 754.618989872045, "timestamp": "2025-12-11T18:59:46.472319+00:00", "meta": {"OBJECT_NAME": "COSMOS 2251 DEB", "OBJECT_ID": "1993-036ATY", "EPOCH": "2025-12-10T14:37:30.242784", "MEAN_MOTION": 14.37513931, "ECCENTRICITY": 0.0023076, "INCLINATION": 74.0281, "RA_OF_ASC_NODE": 298.717, "ARG_OF_PERICENTER": 19.6981, "MEAN_ANOMALY": 340.5059, "EPHEMERIS_TYPE": 0, "CLASSIFICATION_TYPE": "U", "NORAD_CAT_ID": 35885, "ELEMENT_SET_NO": 999, "REV_AT_EPOCH": 64985, "BSTAR": 0.00053652, "MEAN_MOTION_DOT": 1.586e-05, "MEAN_MOTION_DDOT": 0}, "tle": {"line1": "1 35885U 93036ATY 25344.60937781  .00001586  00000+0  53652-3 0  9992", "line2": "2 35885  74.0281 298.7170 0023076  19.6981 340.5059 14.37513931649854"}}, "geometry": {"type": "Point", "coordinates": [-64.8028443054692, -4.682446199303921]}}, {"type": "Feature", "properties": {"norad_id": 35888, "name": "COSMOS 2251 DEB", "group": "cosmos-2251-debris", "lat": -55.42878446582683, "lon": -156.9787490351488, "alt_km": 715.6776288704195, "timestamp": "2025-12-11T18:59:46.472330+00:00", "meta": {"OBJECT_NAME": "COSMOS 2251 DEB", "OBJECT_ID": "1993-036AUB", "EPOCH": "2025-12-10T18:51:31.727232", "MEAN_MOTION": 14.58307538, "ECCENTRICITY": 0.00482976, "INCLINATION": 74.0337, "RA_OF_ASC_NODE": 0.3865, "ARG_OF_PERICENTER": 133.126, "MEAN_ANOMALY": 227.3961, "EPHEMERIS_TYPE": 0, "CLASSIFICATION_TYPE": "U", "NORAD_CAT_ID": 35888, "ELEMENT_SET_NO": 999, "REV_AT_EPOCH": 86245, "BSTAR": 0.00056484468, "MEAN_MOTION_DOT": 2.626e-05, "MEAN_MOTION_DDOT": 0}, "tle": {"line1": "1 35888U 93036AUB 25344.78578388  .00002626  00000+0  56484-3 0  9990", "line2": "2 35888  74.0337   0.3865 0048297 133.1260 227.3961 14.58307538862455"}}, "geometry": {"type": "Point", "coordinates": [-156.9787490351488, -55.42878446582683]}}, {"type": "Feature", "properties": {"norad_id": 35890, "name": "COSMOS 2251 DEB", "group": "cosmos-2251-debris", "lat": -69.65486750313998, "lon": -166.47274572872487, "alt_km": 705.6854599701383, "timestamp": "2025-12-11T18:59:46.472340+00:00", "meta": {"OBJECT_NAME": "COSMOS 2251 DEB", "OBJECT_ID": "1993-036AUD", "EPOCH": "2025-12-08T00:44:22.816032", "MEAN_MOTION": 14.57358592, "ECCENTRICITY": 0.00535586, "INCLINATION": 73.9367, "RA_OF_ASC_NODE": 251.7044, "ARG_OF_PERICENTER": 16.9796, "MEAN_ANOMALY": 343.3143, "EPHEMERIS_TYPE": 0, "CLASSIFICATION_TYPE": "U", "NORAD_CAT_ID": 35890, "ELEMENT_SET_NO": 999, "REV_AT_EPOCH": 65082, "BSTAR": 0.0025122755, "MEAN_MOTION_DOT": 0.00011598, "MEAN_MOTION_DDOT": 0}, "tle": {"line1": "1 35890U 93036AUD 25342.03081963  .00011598  00000+0  25123-2 0  9990", "line2": "2 35890  73.9367 251.7044 0053558  16.9796 343.3143 14.57358592650820"}}, "geometry": {"type": "Point", "coordinates": [-166.47274572872487, -69.65486750313998]}}, {"type": "Feature", "properties": {"norad_id": 35891, "name": "COSMOS 2251 DEB", "group": "cosmos-2251-debris", "lat": -70.50702609932068, "lon": 41.69178150099974, "alt_km": 455.85891356455886, "timestamp": "2025-12-11T18:59:46.472351+00:00", "meta": {"OBJECT_NAME": "COSMOS 2251 DEB", "OBJECT_ID": "1993-036AUE", "EPOCH": "2025-12-10T15:08:56.488704", "MEAN_MOTION": 15.33032056, "ECCENTRICITY": 0.0044173, "INCLINATION": 73.9885, "RA_OF_ASC_NODE": 98.397, "ARG_OF_PERICENTER": 228.9907, "MEAN_ANOMALY": 130.7474, "EPHEMERIS_TYPE": 0, "CLASSIFICATION_TYPE": "U", "NORAD_CAT_ID": 35891, "ELEMENT_SET_NO": 999, "REV_AT_EPOCH": 67188, "BSTAR": 0.0020263, "MEAN_MOTION_DOT": 0.00067253, "MEAN_MOTION_DDOT": 0}, "tle": {"line1": "1 35891U 93036AUE 25344.63120936  .00067253  00000+0  20263-2 0  9992", "line2": "2 35891  73.9885  98.3970 0044173 228.9907 130.7474 15.33032056671884"}}, "geometry": {"type": "Point", "coordinates": [41.69178150099974, -70.50702609932068]}}, {"type": "Feature", "properties": {"norad_id": 35895, "name": "COSMOS 2251 DEB", "group": "cosmos-2251-debris", "lat": -33.986028921167794, "lon": -21.80632213046139, "alt_km": 971.5740019214254, "timestamp": "2025-12-11T18:59:46.472361+00:00", "meta": {"OBJECT_NAME": "COSMOS 2251 DEB", "OBJECT_ID": "1993-036AUJ", "EPOCH": "2025-12-11T07:10:31.732032", "MEAN_MOTION": 14.01513994, "ECCENTRICITY": 0.01987879, "INCLINATION": 74.0502, "RA_OF_ASC_NODE": 350.1634, "ARG_OF_PERICENTER": 88.7843, "MEAN_ANOMALY": 273.6056, "EPHEMERIS_TYPE": 0, "CLASSIFICATION_TYPE": "U", "NORAD_CAT_ID": 35895, "ELEMENT_SET_NO": 999, "REV_AT_EPOCH": 58992, "BSTAR": 0.0020881347, "MEAN_MOTION_DOT": 3.73e-05, "MEAN_MOTION_DDOT": 0}, "tle": {"line1": "1 35895U 93036AUJ 25345.29897838  .00003730  00000+0  20881-2 0  9997", "line2": "2 35895  74.0502 350.1634 0198787  88.7843 273.6056 14.01513994589929"}}, "geometry": {"type": "Point", "coordinates": [-21.80632213046139, -33.986028921167794]}}, {"type": "Feature", "properties": {"norad_id": 35898, "name": "COSMOS 2251 DEB", "group": "cosmos-2251-debris", "lat": -50.980212537738524, "lon": 140.12114231127381, "alt_km": 637.968208000435, "timestamp": "2025-12-11T18:59:46.472371+00:00", "meta": {"OBJECT_NAME": "COSMOS 2251 DEB", "OBJECT_ID": "1993-036AUM", "EPOCH": "2025-12-11T03:33:58.696128", "MEAN_MOTION": 14.94658859, "ECCENTRICITY": 0.00792199, "INCLINATION": 73.9916, "RA_OF_ASC_NODE": 300.6702, "ARG_OF_PERICENTER": 84.5945, "MEAN_ANOMALY": 290.8859, "EPHEMERIS_TYPE": 0, "CLASSIFICATION_TYPE": "U", "NORAD_CAT_ID": 35898, "ELEMENT_SET_NO": 999, "REV_AT_EPOCH": 66786, "BSTAR": 0.001087469, "MEAN_MOTION_DOT": 0.00012532, "MEAN_MOTION_DDOT": 0}, "tle": {"line1": "1 35898U 93036AUM 25345.14859602  .00012532  00000+0  10875-2 0  9993", "line2": "2 35898  73.9916 300.6702 0079219  84.5945 290.8859 14.94658859667864"}}, "geometry": {"type": "Point", "coordinates": [140.12114231127381, -50.980212537738524]}}, {"type": "Feature", "properties": {"norad_id": 35901, "name": "COSMOS 2251 DEB", "group": "cosmos-2251-debris", "lat": -14.673690456886076, "lon": -150.87056143570484, "alt_km": 554.1055506477969, "timestamp": "2025-12-11T18:59:46.472381+00:00", "meta": {"OBJECT_NAME": "COSMOS 2251 DEB", "OBJECT_ID": "1993-036AUQ", "EPOCH": "2025-12-07T10:36:21.692736", "MEAN_MOTION": 15.06319673, "ECCENTRICITY": 0.00066034, "INCLINATION": 74.0121, "RA_OF_ASC_NODE": 33.7639, "ARG_OF_PERICENTER": 0.5644, "MEAN_ANOMALY": 13.1472, "EPHEMERIS_TYPE": 0, "CLASSIFICATION_TYPE": "U", "NORAD_CAT_ID": 35901, "ELEMENT_SET_NO": 999, "REV_AT_EPOCH": 86047, "BSTAR": 0.0047775116, "MEAN_MOTION_DOT": 0.0007096, "MEAN_MOTION_DDOT": 0}, "tle": {"line1": "1 35901U 93036AUQ 25341.44191774  .00070960  00000+0  47775-2 0  9994", "line2": "2 35901  74.0121  33.7639 0006603   0.5644  13.1472 15.06319673860474"}}, "geometry": {"type": "Point", "coordinates": [-150.87056143570484, -14.673690456886076]}}, {"type": "Feature", "properties": {"norad_id": 35902, "name": "COSMOS 2251 DEB", "group": "cosmos-2251-debris", "lat": 33.58138461255724, "lon": -112.70215091813361, "alt_km": 746.6068334843567, "timestamp": "2025-12-11T18:59:46.472392+00:00", "meta": {"OBJECT_NAME": "COSMOS 2251 DEB", "OBJECT_ID": "1993-036AUR", "EPOCH": "2025-12-10T09:10:56.598528", "MEAN_MOTION": 14.26883589, "ECCENTRICITY": 0.01019996, "INCLINATION": 73.9827, "RA_OF_ASC_NODE": 238.8593, "ARG_OF_PERICENTER": 354.0936, "MEAN_ANOMALY": 5.8999, "EPHEMERIS_TYPE": 0, "CLASSIFICATION_TYPE": "U", "NORAD_CAT_ID": 35902, "ELEMENT_SET_NO": 999, "REV_AT_EPOCH": 61096, "BSTAR": 0.0017323625, "MEAN_MOTION_DOT": 4.42e-05, "MEAN_MOTION_DDOT": 0}, "tle": {"line1": "1 35902U 93036AUR 25344.38259952  .00004420  00000+0  17324-2 0  9999", "line2": "2 35902  73.9827 238.8593 0101999 354.0936   5.8999 14.26883589610960"}}, "geometry": {"type": "Point", "coordinates": [-112.70215091813361, 33.58138461255724]}}, {"type": "Feature", "properties": {"norad_id": 35905, "name": "COSMOS 2251 DEB", "group": "cosmos-2251-debris", "lat": 70.3864713491786, "lon": -20.731812684409032, "alt_km": 624.6158263961497, "timestamp": "2025-12-11T18:59:46.472402+00:00", "meta": {"OBJECT_NAME": "COSMOS 2251 DEB", "OBJECT_ID": "1993-036AUU", "EPOCH": "2025-12-10T21:43:08.354784", "MEAN_MOTION": 14.98979266, "ECCENTRICITY": 0.0090796, "INCLINATION": 74.0316, "RA_OF_ASC_NODE": 214.5374, "ARG_OF_PERICENTER": 295.0464, "MEAN_ANOMALY": 64.1316, "EPHEMERIS_TYPE": 0, "CLASSIFICATION_TYPE": "U", "NORAD_CAT_ID": 35905, "ELEMENT_SET_NO": 999, "REV_AT_EPOCH": 88555, "BSTAR": 0.0008013, "MEAN_MOTION_DOT": 0.0001055, "MEAN_MOTION_DDOT": 0}, "tle": {"line1": "1 35905U 93036AUU 25344.90495781  .00010550  00000+0  80130-3 0  9999", "line2": "2 35905  74.0316 214.5374 0090796 295.0464  64.1316 14.98979266885555"}}, "geometry": {"type": "Point", "coordinates": [-20.731812684409032, 70.3864713491786]}}, {"type": "Feature", "properties": {"norad_id": 35959, "name": "COSMOS 2251 DEB", "group": "cosmos-2251-debris", "lat": 73.36775075393956, "lon": 60.372047813399014, "alt_km": 762.8641616962359, "timestamp": "2025-12-11T18:59:46.472413+00:00", "meta": {"OBJECT_NAME": "COSMOS 2251 DEB", "OBJECT_ID": "1993-036AUZ", "EPOCH": "2025-12-10T15:46:18.097824", "MEAN_MOTION": 14.34133679, "ECCENTRICITY": 0.00214667, "INCLINATION": 74.0324, "RA_OF_ASC_NODE": 315.8763, "ARG_OF_PERICENTER": 36.9874, "MEAN_ANOMALY": 323.2753, "EPHEMERIS_TYPE": 0, "CLASSIFICATION_TYPE": "U", "NORAD_CAT_ID": 35959, "ELEMENT_SET_NO": 999, "REV_AT_EPOCH": 84898, "BSTAR": 0.00020861744, "MEAN_MOTION_DOT": 5.59e-06, "MEAN_MOTION_DDOT": 0}, "tle": {"line1": "1 35959U 93036AUZ 25344.65715391  .00000559  00000+0  20862-3 0  9996", "line2": "2 35959  74.0324 315.8763 0021466  36.9874 323.2753 14.34133679848985"}}, "geometry": {"type": "Point", "coordinates": [60.372047813399014, 73.36775075393956]}}]}